NORAD_CAT_ID,OBJECT_NAME,OBJECT_TYPE,EPOCH,MEAN_MOTION,ECCENTRICITY,INCLINATION,RA_OF_ASC_NODE,ARG_OF_PERICENTER,MEAN_ANOMALY,BSTAR,MEAN_MOTION_DOT,MEAN_MOTION_DDOT,TLE_LINE0,TLE_LINE1,TLE_LINE2,SEMIMAJOR_AXIS,PERIOD,APOGEE,PERIGEE,DECAYED
56783.0,STARLINK-6357,PAYLOAD,2024-05-31 17:35:32,14.98327808,0.0003194,69.998,155.745,269.8194,90.2599,1.7674e-05,1.18e-06,0.0,0 STARLINK-6357,1 56783U 23078S   24152.73301192  .00000118  00000-0  17674-4 0  9998,2 56783  69.9980 155.7450 0003194 269.8194  90.2599 14.98327808 56268,6950.2,96.107,574.285,569.845,0.0
56783.0,STARLINK-6357,PAYLOAD,2024-06-01 04:48:28,14.98330552,0.0003174,69.998,154.5667,269.4642,90.6153,3.9709e-06,-4.6e-07,0.0,0 STARLINK-6357,1 56783U 23078S   24153.20033054 -.00000046  00000-0  39709-5 0  9995,2 56783  69.9980 154.5667 0003174 269.4642  90.6153 14.98330552 56593,6950.191,96.107,574.262,569.85,0.0
56783.0,STARLINK-6357,PAYLOAD,2024-06-01 09:36:53,14.98325556,0.0003263,69.9976,154.0611,268.5188,91.5597,-5.608e-05,-7.62e-06,0.0,0 STARLINK-6357,1 56783U 23078S   24153.40061511 -.00000762  00000-0 -56080-4 0  9992,2 56783  69.9976 154.0611 0003263 268.5188  91.5597 14.98325556 56361,6950.207,96.107,574.339,569.804,0.0
56783.0,STARLINK-6357,PAYLOAD,2024-06-01 17:37:34,14.98316291,0.0003262,69.9976,153.2195,268.9874,91.0911,-0.00010648,-1.363e-05,0.0,0 STARLINK-6357,1 56783U 23078S   24153.73442394 -.00001363  00000-0 -10648-3 0  9997,2 56783  69.9976 153.2195 0003262 268.9874  91.0911 14.98316291 56679,6950.235,96.108,574.367,569.833,0.0
56783.0,STARLINK-6357,PAYLOAD,2024-06-02 09:38:55,14.98317036,0.0003226,69.9979,151.536,269.3364,90.7425,-7.999e-05,-1.047e-05,0.0,0 STARLINK-6357,1 56783U 23078S   24154.40202782 -.00001047  00000-0 -79990-4 0  9992,2 56783  69.9979 151.5360 0003226 269.3364  90.7425 14.98317036 56513,6950.233,96.108,574.34,569.856,0.0
56783.0,STARLINK-6357,PAYLOAD,2024-06-03 04:52:31,14.9832557,0.0003302,69.998,149.5169,269.3863,90.6917,-1.0183e-05,-2.15e-06,0.0,0 STARLINK-6357,1 56783U 23078S   24155.20314435 -.00000215  00000-0 -10183-4 0  9995,2 56783  69.9980 149.5169 0003302 269.3863  90.6917 14.98325570 56896,6950.207,96.107,574.367,569.777,0.0
56783.0,STARLINK-6357,PAYLOAD,2024-06-03 09:40:55,14.98327358,0.0003285,69.9981,149.0118,269.2842,90.794,6.0909e-06,-2e-07,0.0,0 STARLINK-6357,1 56783U 23078S   24155.40342340 -.00000020  00000-0  60909-5 0  9998,2 56783  69.9981 149.0118 0003285 269.2842  90.7940 14.98327358 56660,6950.201,96.107,574.349,569.783,0.0
56783.0,STARLINK-6357,PAYLOAD,2024-06-04 09:42:56,14.98330383,0.0003394,69.9981,146.4865,269.8952,90.1818,0.00013865,1.562e-05,0.0,0 STARLINK-6357,1 56783U 23078S   24156.40482033  .00001562  00000-0  13865-3 0  9991,2 56783  69.9981 146.4865 0003394 269.8952  90.1818 14.98330383 57075,6950.192,96.107,574.416,569.698,0.0
56783.0,STARLINK-6357,PAYLOAD,2024-06-04 16:07:28,14.98334715,0.0003386,69.9981,145.8134,269.4314,90.6457,0.00014851,1.68e-05,0.0,0 STARLINK-6357,1 56783U 23078S   24156.67185677  .00001680  00000-0  14851-3 0  9991,2 56783  69.9981 145.8134 0003386 269.4314  90.6457 14.98334715 56858,6950.178,96.107,574.397,569.69,0.0
56783.0,STARLINK-6357,PAYLOAD,2024-06-05 03:20:24,14.98339987,0.0003397,69.9983,144.6349,270.2351,89.8419,0.00010032,1.104e-05,0.0,0 STARLINK-6357,1 56783U 23078S   24157.13917254  .00001104  00000-0  10032-3 0  9995,2 56783  69.9983 144.6349 0003397 270.2351  89.8419 14.98339987 57189,6950.162,96.106,574.388,569.666,0.0
56783.0,STARLINK-6357,PAYLOAD,2024-06-05 09:44:56,14.98344044,0.0003338,69.9984,143.9619,269.5332,90.5444,0.0001382,1.557e-05,0.0,0 STARLINK-6357,1 56783U 23078S   24157.40620673  .00001557  00000-0  13820-3 0  9991,2 56783  69.9984 143.9619 0003338 269.5332  90.5444 14.98344044 56969,6950.149,96.106,574.334,569.695,0.0
56783.0,STARLINK-6357,PAYLOAD,2024-06-05 22:34:01,14.98336648,0.0003192,69.9989,142.6159,268.3159,91.7634,-2.9994e-05,-4.51e-06,0.0,0 STARLINK-6357,1 56783U 23078S   24157.94029243 -.00000451  00000-0 -29994-4 0  9990,2 56783  69.9989 142.6159 0003192 268.3159  91.7634 14.98336648 57046,6950.172,96.107,574.256,569.819,0.0
56783.0,STARLINK-6357,PAYLOAD,2024-06-06 04:58:33,14.98337578,0.0003161,69.9988,141.9427,268.0464,92.0333,-1.4002e-05,-2.6e-06,0.0,0 STARLINK-6357,1 56783U 23078S   24158.20732979 -.00000260  00000-0 -14002-4 0  9999,2 56783  69.9988 141.9427 0003161 268.0464  92.0333 14.98337578 57343,6950.169,96.107,574.231,569.838,0.0
56783.0,STARLINK-6357,PAYLOAD,2024-06-06 08:10:49,14.98339222,0.0003153,69.9988,141.606,268.4497,91.6301,3.9744e-06,-4.6e-07,0.0,0 STARLINK-6357,1 56783U 23078S   24158.34084744 -.00000046  00000-0  39744-5 0  9996,2 56783  69.9988 141.6060 0003153 268.4497  91.6301 14.98339222 57106,6950.164,96.106,574.221,569.838,0.0
56783.0,STARLINK-6357,PAYLOAD,2024-06-07 08:12:50,14.98334112,0.000311,69.999,139.0819,266.9282,93.1521,-0.0001167,-1.485e-05,0.0,0 STARLINK-6357,1 56783U 23078S   24159.34224900 -.00001485  00000-0 -11670-3 0  9992,2 56783  69.9990 139.0819 0003110 266.9282  93.1521 14.98334112 57519,6950.18,96.107,574.207,569.884,0.0
56783.0,STARLINK-6357,PAYLOAD,2024-06-07 16:13:30,14.98336956,0.0003222,69.9985,138.2397,266.6223,93.4568,-0.0001185,-1.507e-05,0.0,0 STARLINK-6357,1 56783U 23078S   24159.67604555 -.00001507  00000-0 -11850-3 0  9991,2 56783  69.9985 138.2397 0003222 266.6223  93.4568 14.98336956 57300,6950.171,96.107,574.276,569.797,0.0
56783.0,STARLINK-6357,PAYLOAD,2024-06-08 08:14:50,14.98337155,0.0003163,69.9985,136.5563,270.0362,90.0435,2.3314e-05,1.85e-06,0.0,0 STARLINK-6357,1 56783U 23078S   24160.34364030  .00000185  00000-0  23314-4 0  9996,2 56783  69.9985 136.5563 0003163 270.0362  90.0435 14.98337155 57660,6950.171,96.107,574.234,569.837,0.0
56783.0,STARLINK-6357,PAYLOAD,2024-06-08 22:40:03,14.98327219,0.0002938,69.9993,135.0406,269.8556,90.2267,8.1364e-06,4e-08,0.0,0 STARLINK-6357,1 56783U 23078S   24160.94448631  .00000004  00000-0  81364-5 0  9992,2 56783  69.9993 135.0406 0002938 269.8556  90.2267 14.98327219 57495,6950.201,96.107,574.108,570.025,0.0
56783.0,STARLINK-6357,PAYLOAD,2024-06-09 05:04:35,14.98329425,0.0002967,69.999,134.3678,270.2303,89.8516,-1.017e-06,-1.05e-06,0.0,0 STARLINK-6357,1 56783U 23078S   24161.21152562 -.00000105  00000-0 -10170-5 0  9999,2 56783  69.9990 134.3678 0002967 270.2303  89.8516 14.98329425 57798,6950.195,96.107,574.122,569.998,0.0
56783.0,STARLINK-6357,PAYLOAD,2024-06-09 08:16:51,14.9833043,0.0002943,69.9991,134.031,270.2336,89.8486,1.0876e-05,3.7e-07,0.0,0 STARLINK-6357,1 56783U 23078S   24161.34504464  .00000037  00000-0  10876-4 0  9999,2 56783  69.9991 134.0310 0002943 270.2336  89.8486 14.98330430 57557,6950.192,96.107,574.102,570.011,0.0
56783.0,STARLINK-6357,PAYLOAD,2024-06-09 22:42:04,14.9832891,0.0002903,69.9992,132.5161,270.2843,89.7983,-4.4777e-05,-6.27e-06,0.0,0 STARLINK-6357,1 56783U 23078S   24161.94588735 -.00000627  00000-0 -44777-4 0  9992,2 56783  69.9992 132.5161 0002903 270.2843  89.7983 14.98328910 57645,6950.196,96.107,574.079,570.044,0.0
56783.0,STARLINK-6357,PAYLOAD,2024-06-10 05:06:36,14.98330067,0.0002882,69.9991,131.8432,269.9264,90.1565,-2.7824e-05,-4.25e-06,0.0,0 STARLINK-6357,1 56783U 23078S   24162.21292622 -.00000425  00000-0 -27824-4 0  9990,2 56783  69.9991 131.8432 0002882 269.9264  90.1565 14.98330067 57946,6950.193,96.107,574.061,570.055,0.0
56783.0,STARLINK-6357,PAYLOAD,2024-06-10 14:43:25,14.98328788,0.0002857,69.9993,130.8333,270.5121,89.571,-1.7099e-05,-2.97e-06,0.0,0 STARLINK-6357,1 56783U 23078S   24162.61348688 -.00000297  00000-0 -17099-4 0  9998,2 56783  69.9993 130.8333 0002857 270.5121  89.5710 14.98328788 57748,6950.197,96.107,574.047,570.076,0.0
56783.0,STARLINK-6357,PAYLOAD,2024-06-10 22:44:05,14.98329055,0.0002848,69.9992,129.9915,271.54,88.5432,1.8177e-05,1.24e-06,0.0,0 STARLINK-6357,1 56783U 23078S   24162.94728582  .00000124  00000-0  18177-4 0  9994,2 56783  69.9992 129.9915 0002848 271.5400  88.5432 14.98329055 57796,6950.196,96.107,574.04,570.081,0.0
56783.0,STARLINK-6357,PAYLOAD,2024-06-11 06:44:45,14.98331697,0.0002794,69.9992,129.1505,269.2794,90.8045,4.5838e-05,4.54e-06,0.0,0 STARLINK-6357,1 56783U 23078S   24163.28108331  .00000454  00000-0  45838-4 0  9996,2 56783  69.9992 129.1505 0002794 269.2794  90.8045 14.98331697 57840,6950.188,96.107,573.995,570.111,0.0
56783.0,STARLINK-6357,PAYLOAD,2024-06-12 03:34:30,14.98329522,0.0002812,69.9991,126.9622,270.0326,90.0511,2.6294e-05,2.21e-06,0.0,0 STARLINK-6357,1 56783U 23078S   24164.14896470  .00000221  00000-0  26294-4 0  9997,2 56783  69.9991 126.9622 0002812 270.0326  90.0511 14.98329522 58234,6950.194,96.107,574.014,570.105,0.0
56783.0,STARLINK-6357,PAYLOAD,2024-06-12 06:46:46,14.98331264,0.0002797,69.9992,126.6257,269.4246,90.6592,4.4058e-05,4.33e-06,0.0,0 STARLINK-6357,1 56783U 23078S   24164.28248297  .00000433  00000-0  44058-4 0  9993,2 56783  69.9992 126.6257 0002797 269.4246  90.6592 14.98331264 57994,6950.189,96.107,573.998,570.11,0.0
56783.0,STARLINK-6357,PAYLOAD,2024-06-12 22:48:07,14.9832873,0.000263,69.9997,124.9433,256.9793,103.1073,-5.1845e-05,-7.11e-06,0.0,0 STARLINK-6357,1 56783U 23078S   24164.95008683 -.00000711  00000-0 -51845-4 0  9993,2 56783  69.9997 124.9433 0002630 256.9793 103.1073 14.98328730 58090,6950.197,96.107,573.89,570.234,0.0
56783.0,STARLINK-6357,PAYLOAD,2024-06-13 03:36:31,14.98326796,0.0002738,69.9992,124.4359,265.8778,94.2068,-5.3439e-05,-7.3e-06,0.0,0 STARLINK-6357,1 56783U 23078S   24165.15036848 -.00000730  00000-0 -53439-4 0  9992,2 56783  69.9992 124.4359 0002738 265.8778  94.2068 14.98326796 58384,6950.203,96.107,573.971,570.165,0.0
56783.0,STARLINK-6357,PAYLOAD,2024-06-13 06:48:47,14.9832706,0.0002729,69.9993,124.0994,266.1354,93.9493,-4.7783e-05,-6.63e-06,0.0,0 STARLINK-6357,1 56783U 23078S   24165.28388842 -.00000663  00000-0 -47783-4 0  9990,2 56783  69.9993 124.0994 0002729 266.1354  93.9493 14.98327060 58147,6950.202,96.107,573.964,570.17,0.0
